[
    {
        "Altitude(m)": 604221.2232007149,
        "Argument of Periapsis(deg)": 0.0,
        "Eccentricity": 0.0,
        "Inclination(deg)": 60.0,
        "Latitude(deg)": 14.117353483248023,
        "Longitude(deg)": 143.3341681028589,
        "Mean Anomaly(deg)": 16.363599999999984,
        "RAAN(deg)": 235.0,
        "Satellite Name": "Test1 1035",
        "Satellite Number": 1035,
        "Semi-Major Axis(m)": 6980739.136638005,
        "Time(s)": 0
    },
    {
        "Altitude(m)": 604235.3647133743,
        "Argument of Periapsis(deg)": 0.00010418945913296404,
        "Eccentricity": 0.0,
        "Inclination(deg)": 60.0,
        "Latitude(deg)": 14.651749950204447,
        "Longitude(deg)": 143.62261575221697,
        "Mean Anomaly(deg)": 16.983706145461838,
        "RAAN(deg)": 234.99957995086027,
        "Satellite Name": "Test1 1035",
        "Satellite Number": 1035,
        "Semi-Major Axis(m)": 6980739.136638005,
        "Time(s)": 10
    }
]